NORAD_CAT_ID,OBJECT_NAME,OBJECT_TYPE,EPOCH,MEAN_MOTION,ECCENTRICITY,INCLINATION,RA_OF_ASC_NODE,ARG_OF_PERICENTER,MEAN_ANOMALY,BSTAR,MEAN_MOTION_DOT,MEAN_MOTION_DDOT,TLE_LINE0,TLE_LINE1,TLE_LINE2,SEMIMAJOR_AXIS,PERIOD,APOGEE,PERIGEE,DECAYED
50825.0,STARLINK-3332,PAYLOAD,2022-05-17 06:00:00,15.08817692,0.0001585999999999,53.2168,300.0309,46.0691,324.4902,0.0026827,0.0004264,0.0,0 STARLINK-3332,1 50825U 22001Y   22137.25001157  .00042640  00000-0  26827-2 0  9994,2 50825  53.2168 300.0309 0001586  46.0691 324.4902 15.08817692 21462,6917.949000000001,95.439,540.911,538.716,0.0
50825.0,STARLINK-3332,PAYLOAD,2022-05-17 14:00:01,15.08877011,0.0001662,53.2171,298.5351,45.9107,336.287,-0.0035292,-0.00056075,0.0,0 STARLINK-3332,1 50825U 22001Y   22137.58335648 -.00056075  00000-0 -35292-2 0  9990,2 50825  53.2171 298.5351 0001662  45.9107 336.2870 15.08877011  1306,6917.767,95.435,540.7819999999998,538.4830000000002,0.0
50825.0,STARLINK-3332,PAYLOAD,2022-05-17 20:00:01,15.08835758,0.0001826,53.2172,297.414,41.4908,259.3698,0.0003131,4.698e-05,0.0,0 STARLINK-3332,1 50825U 22001Y   22137.83334491  .00004698  00000-0  31310-3 0  9993,2 50825  53.2172 297.4140 0001826  41.4908 259.3698 15.08835758 21557,6917.893,95.438,541.0219999999998,538.495,0.0
50825.0,STARLINK-3332,PAYLOAD,2022-05-17 22:00:01,15.08835314,0.0001815,53.2171,297.0398,39.2827,354.5398,0.00020377,2.956e-05,0.0,0 STARLINK-3332,1 50825U 22001Y   22137.91668981  .00002956  00000-0  20377-3 0  9992,2 50825  53.2171 297.0398 0001815  39.2827 354.5398 15.08835314  1304,6917.895,95.438,541.015,538.504,0.0
50825.0,STARLINK-3332,PAYLOAD,2022-05-18 14:00:01,15.08863053,0.0001785,53.2177,294.0461,45.4354,11.498,-0.0013449,-0.00021642,0.0,0 STARLINK-3332,1 50825U 22001Y   22138.58334491 -.00021642  00000-0 -13449-2 0  9998,2 50825  53.2177 294.0461 0001785  45.4354  11.4980 15.08863053  1305,6917.81,95.436,540.91,538.44,0.0
50825.0,STARLINK-3332,PAYLOAD,2022-05-18 22:00:00,15.08848855,0.0001915,53.2175,292.5508,39.4129,29.136,-0.0014788,-0.00023752,0.0,0 STARLINK-3332,1 50825U 22001Y   22138.91667824 -.00023752  00000-0 -14788-2 0  9995,2 50825  53.2175 292.5508 0001915  39.4129  29.1360 15.08848855 21714,6917.853,95.437,541.043,538.394,0.0
50825.0,STARLINK-3332,PAYLOAD,2022-05-19 14:00:01,15.08840486,0.0001874,53.218,289.5573,45.9153,45.8502,-0.0010015,-0.00016192,0.0,0 STARLINK-3332,1 50825U 22001Y   22139.58335648 -.00016192  00000-0 -10015-2 0  9994,2 50825  53.2180 289.5573 0001874  45.9153  45.8502 15.08840486  1309,6917.879,95.438,541.04,538.447,0.0
50825.0,STARLINK-3332,PAYLOAD,2022-05-19 22:00:00,15.0883069,0.0001941,53.2176,288.0619,39.1247,64.1765,0.00083375,0.00013003,0.0,0 STARLINK-3332,1 50825U 22001Y   22139.91667824  .00013003  00000-0  83375-3 0  9991,2 50825  53.2176 288.0619 0001941  39.1247  64.1765 15.08830690 21867,6917.909000000002,95.438,541.117,538.431,0.0
50825.0,STARLINK-3332,PAYLOAD,2022-05-20 14:00:01,15.08836849,0.0002016,53.2176,285.0548,39.6522,86.8014,-2.8922e-05,-7.48e-06,0.0,0 STARLINK-3332,1 50825U 22001Y   22140.58334491 -.00000748  00000-0 -28922-4 0  9999,2 50825  53.2176 285.0548 0002016  39.6522  86.8014 15.08836849 21961,6917.89,95.438,541.15,538.36,0.0
50825.0,STARLINK-3332,PAYLOAD,2022-05-20 22:00:00,15.08837711,0.0001997,53.2173,283.5731,40.4233,97.6599,0.001603,0.00025314,0.0,0 STARLINK-3332,1 50825U 22001Y   22140.91667824  .00025314  00000-0  16030-2 0  9994,2 50825  53.2173 283.5731 0001997  40.4233  97.6599 15.08837711 22015,6917.887,95.438,541.134,538.371,0.0
50825.0,STARLINK-3332,PAYLOAD,2022-05-21 06:00:00,15.08816754,0.0001714,53.2173,282.0751,43.6245,106.0726,0.0028351,0.00045093,0.0,0 STARLINK-3332,1 50825U 22001Y   22141.25001157  .00045093  00000-0  28351-2 0  9998,2 50825  53.2173 282.0751 0001714  43.6245 106.0726 15.08816754  1306,6917.951,95.439,541.002,538.631,0.0
50825.0,STARLINK-3332,PAYLOAD,2022-05-21 14:00:01,15.08867515,0.0001793,53.2173,280.58,41.0473,120.2972,-0.0039952,-0.00063361,0.0,0 STARLINK-3332,1 50825U 22001Y   22141.58335648 -.00063361  00000-0 -39952-2 0  9998,2 50825  53.2173 280.5800 0001793  41.0473 120.2972 15.08867515 22110,6917.795999999999,95.436,540.9019999999998,538.4209999999998,0.0
50825.0,STARLINK-3332,PAYLOAD,2022-05-21 22:00:00,15.08835637,0.0001901,53.2166,279.0841,37.164,135.7276,-0.00076025,-0.00012366,0.0,0 STARLINK-3332,1 50825U 22001Y   22141.91667824 -.00012366  00000-0 -76025-3 0  9991,2 50825  53.2166 279.0841 0001901  37.1640 135.7276 15.08835637  1309,6917.894,95.438,541.0740000000002,538.444,0.0
50825.0,STARLINK-3332,PAYLOAD,2022-05-22 06:00:00,15.08800594,0.0001719,53.2165,277.5862,43.6524,140.8261,0.0040107,0.00064054,0.0,0 STARLINK-3332,1 50825U 22001Y   22142.25001157  .00064054  00000-0  40107-2 0  9990,2 50825  53.2165 277.5862 0001719  43.6524 140.8261 15.08800594 22212,6918.001,95.44,541.055,538.677,0.0
50825.0,STARLINK-3332,PAYLOAD,2022-05-22 14:00:01,15.08853764,0.0001831,53.2165,276.0913,41.5839,154.464,-0.0032152,-0.00051115,0.0,0 STARLINK-3332,1 50825U 22001Y   22142.58334491 -.00051115  00000-0 -32152-2 0  9993,2 50825  53.2165 276.0913 0001831  41.5839 154.4640 15.08853764  1300,6917.8380000000025,95.437,540.97,538.437,0.0
50825.0,STARLINK-3332,PAYLOAD,2022-05-22 22:00:01,15.08839302,0.0001931,53.216,274.5951,38.0784,169.6337,-0.00096549,-0.00015621,0.0,0 STARLINK-3332,1 50825U 22001Y   22142.91668981 -.00015621  00000-0 -96549-3 0  9997,2 50825  53.2160 274.5951 0001931  38.0784 169.6337 15.08839302 22318,6917.8830000000025,95.438,541.0830000000002,538.4119999999998,0.0
50825.0,STARLINK-3332,PAYLOAD,2022-05-23 14:00:01,15.08852776,0.0001911,53.216,271.6022,41.9515,188.8764,-0.0014025,-0.00022548,0.0,0 STARLINK-3332,1 50825U 22001Y   22143.58334491 -.00022548  00000-0 -14025-2 0  9991,2 50825  53.2160 271.6022 0001911  41.9515 188.8764 15.08852776  1301,6917.840999999999,95.437,541.028,538.384,0.0
50825.0,STARLINK-3332,PAYLOAD,2022-05-23 16:00:00,15.08852963,0.0001963,53.2161,271.2285,40.3196,283.4088,-0.0016759,-0.00026871,0.0,0 STARLINK-3332,1 50825U 22001Y   22143.66667824 -.00026871  00000-0 -16759-2 0  9998,2 50825  53.2161 271.2285 0001963  40.3196 283.4088 15.08852963 22430,6917.840999999999,95.437,541.064,538.3480000000002,0.0
50825.0,STARLINK-3332,PAYLOAD,2022-05-23 22:00:01,15.08842485,0.0001922,53.2157,270.1058,36.5333,205.9619,-0.00019823,-3.442e-05,0.0,0 STARLINK-3332,1 50825U 22001Y   22143.91668981 -.00003442  00000-0 -19823-3 0  9996,2 50825  53.2157 270.1058 0001922  36.5333 205.9619 15.08842485  1306,6917.873000000001,95.437,541.067,538.408,0.0
50825.0,STARLINK-3332,PAYLOAD,2022-05-24 14:25:03,15.08838625,0.0001949,53.2186,267.0319,44.9235,315.1915,3.606e-05,2.86e-06,0.0,0 STARLINK-3332,1 50825U 22001Y   22144.60073523  .00000286  00000-0  36060-4 0  9999,2 50825  53.2186 267.0319 0001949  44.9235 315.1915 15.08838625 21302,6917.885,95.438,541.0980000000002,538.401,0.0
50825.0,STARLINK-3332,PAYLOAD,2022-05-24 22:00:00,15.08835912,0.0001978,53.2159,265.6164,35.756,241.432,-0.001627,-0.00026086,0.0,0 STARLINK-3332,1 50825U 22001Y   22144.91667824 -.00026086  00000-0 -16270-2 0  9993,2 50825  53.2159 265.6164 0001978  35.7560 241.4320 15.08835912 22628,6917.893,95.438,541.126,538.39,0.0
50825.0,STARLINK-3332,PAYLOAD,2022-05-25 14:00:01,15.08833186,0.0002081,53.2164,262.6236,39.7989,260.5608,5.1826e-05,5.37e-06,0.0,0 STARLINK-3332,1 50825U 22001Y   22145.58334491  .00000537  00000-0  51826-4 0  9997,2 50825  53.2164 262.6236 0002081  39.7989 260.5608 15.08833186 22729,6917.901,95.438,541.206,538.327,0.0
50825.0,STARLINK-3332,PAYLOAD,2022-05-25 17:26:37,15.08836323,0.0001794,53.2185,261.9779,45.2301,314.8837,-6.0972000000000015e-06,-3.85e-06,0.0,0 STARLINK-3332,1 50825U 22001Y   22145.72681939 -.00000385  00000-0 -60972-5 0  9991,2 50825  53.2185 261.9779 0001794  45.2301 314.8837 15.08836323 21470,6917.892,95.438,540.998,538.516,0.0
50825.0,STARLINK-3332,PAYLOAD,2022-05-26 12:31:14,15.08853293,0.0002063,53.2179,258.4096,35.5178,324.5951,-0.00016474,-2.9100000000000013e-05,0.0,0 STARLINK-3332,1 50825U 22001Y   22146.52169202 -.00002910  00000-0 -16474-3 0  9996,2 50825  53.2179 258.4096 0002063  35.5178 324.5951 15.08853293 22864,6917.84,95.437,541.132,538.278,0.0
50825.0,STARLINK-3332,PAYLOAD,2022-05-26 14:06:37,15.08835363,0.0002012,53.2179,258.1123,33.2635,326.8484,6.8135e-05,7.96e-06,0.0,0 STARLINK-3332,1 50825U 22001Y   22146.58793806  .00000796  00000-0  68135-4 0  9995,2 50825  53.2179 258.1123 0002012  33.2635 326.8484 15.08835363 21604,6917.895,95.438,541.151,538.368,0.0
50825.0,STARLINK-3332,PAYLOAD,2022-05-26 22:00:00,15.08853552,0.000202,53.217,256.6376,34.1545,312.5763,-0.0043871,-0.00069464,0.0,0 STARLINK-3332,1 50825U 22001Y   22146.91667824 -.00069464  00000-0 -43871-2 0  9999,2 50825  53.2170 256.6376 0002020  34.1545 312.5763 15.08853552 22925,6917.839,95.437,541.101,538.307,0.0
50825.0,STARLINK-3332,PAYLOAD,2022-05-27 13:57:26,15.08819659,0.0001991,53.2182,253.6518,38.8276,321.2859,-7.0817e-05,-1.414e-05,0.0,0 STARLINK-3332,1 50825U 22001Y   22147.58155776 -.00001414  00000-0 -70817-4 0  9994,2 50825  53.2182 253.6518 0001991  38.8276 321.2859 15.08819659 21754,6917.943,95.439,541.185,538.43,0.0
50825.0,STARLINK-3332,PAYLOAD,2022-05-27 16:00:00,15.08802707,0.0002116,53.2176,253.2716,37.1643,65.6002,0.0019822,0.00031368,0.0,0 STARLINK-3332,1 50825U 22001Y   22147.66667824  .00031368  00000-0  19822-2 0  9991,2 50825  53.2176 253.2716 0002116  37.1643  65.6002 15.08802707 23031,6917.994000000002,95.44,541.323,538.396,0.0
50825.0,STARLINK-3332,PAYLOAD,2022-05-27 22:00:01,15.08843521,0.0002052,53.2174,252.1485,36.7061,344.7908,-0.0011875,-0.0001914,0.0,0 STARLINK-3332,1 50825U 22001Y   22147.91668981 -.00019140  00000-0 -11875-2 0  9990,2 50825  53.2174 252.1485 0002052  36.7061 344.7908 15.08843521  1309,6917.87,95.437,541.154,538.315,0.0
